stk.v.4.3 

BEGIN Ephemeris 
 
NumberOfEphemerisPoints		146 
ScenarioEpoch	    1 Sep 2020 10:19:31.361365915 
InterpolationMethod		Lagrange 
InterpolationOrder		5 
CentralBody				Earth 
CoordinateSystem			TEME 
CoordinateSystemEpoch	  1 Sep 2020 10:19:31.361365915 
DistanceUnit			Kilometers 
 
EphemerisTimePosVel 
 
       0.00000000   -7071.39277640   -1116.24312106       0.02708964  0.082449931 -0.460730334  7.448690661
 END Ephemeris 
